{
 "type": "FeatureCollection",
 "features": [
  {
   "type": "Feature",
   "properties": {
    "id": "SJ-980860-1991",
    "finca": "1-386536-000",
    "stated_area_m2": 111820.13,
    "source": "plan-survey-1991"
   },
   "geometry": {
    "type": "Polygon",
    "coordinates": [
     [
      [
       -83.66258909267911,
       9.38138278765295
      ],
      [
       -83.66258691144606,
       9.381377033286029
      ],
      [
       -83.66276556111265,
       9.380183488143246
      ],
      [
       -83.66273700743712,
       9.38014340653526
      ],
      [
       -83.66291984331896,
       9.379945055112808
      ],
      [
       -83.6630414711854,
       9.379875049987417
      ],
      [
       -83.66385024873782,
       9.37987792105073
      ],
      [
       -83.66611377943562,
       9.379966420933474
      ],
      [
       -83.66860561509282,
       9.38008185985233
      ],
      [
       -83.66871129125818,
       9.380217992064818
      ],
      [
       -83.66943229260781,
       9.379678502527623
      ],
      [
       -83.66941508680101,
       9.380622336812195
      ],
      [
       -83.66914982950169,
       9.381311442466973
      ],
      [
       -83.66258909267911,
       9.38138278765295
      ]
     ]
    ]
   }
  },
  {
   "type": "Feature",
   "properties": {
    "id": "SJ-980861-1991",
    "finca": "1-101880-000",
    "stated_area_m2": 111826.59,
    "source": "plan-survey-1991"
   },
   "geometry": {
    "type": "Polygon",
    "coordinates": [
     [
      [
       -83.66256191289172,
       9.383573191951504
      ],
      [
       -83.66266549932561,
       9.383130721222416
      ],
      [
       -83.66278490834532,
       9.381900286107118
      ],
      [
       -83.66258909267911,
       9.38138278765295
      ],
      [
       -83.66914985467878,
       9.381311266736189
      ],
      [
       -83.66898934731311,
       9.38172824352025
      ],
      [
       -83.66778660817656,
       9.382543418471691
      ],
      [
       -83.66547735005878,
       9.382177281088545
      ],
      [
       -83.66562831480744,
       9.383286782498951
      ],
      [
       -83.66256191289172,
       9.383573191951504
      ]
     ]
    ]
   }
  }
 ]
}
