{
 "type": "FeatureCollection",
 "features": [
  {
   "type": "Feature",
   "properties": {
    "id": "rio-general",
    "name": "Río General",
    "role": "limit between El General and Daniel Flores — the plan's work-area line",
    "source": "OpenStreetMap (ODbL)",
    "osm_ways": [
     38668398,
     422258165,
     1150825664
    ]
   },
   "geometry": {
    "type": "LineString",
    "coordinates": [
     [
      -83.6670691,
      9.3953146
     ],
     [
      -83.6677676,
      9.3937691
     ],
     [
      -83.668004,
      9.3921615
     ],
     [
      -83.6684438,
      9.3920014
     ],
     [
      -83.668988,
      9.3915266
     ],
     [
      -83.6692884,
      9.38996
     ],
     [
      -83.6698785,
      9.3883299
     ],
     [
      -83.670769,
      9.3872925
     ],
     [
      -83.6719062,
      9.3857894
     ],
     [
      -83.6731697,
      9.3846718
     ],
     [
      -83.6731347,
      9.3837191
     ],
     [
      -83.6730868,
      9.3829572
     ],
     [
      -83.6729741,
      9.3818367
     ],
     [
      -83.6729753,
      9.3812582
     ],
     [
      -83.6731888,
      9.3805896
     ],
     [
      -83.6734393,
      9.3799211
     ],
     [
      -83.6734812,
      9.3797537
     ]
    ]
   }
  }
 ]
}